0 ENVISAT
1 27386U 02009A   20288.62706060 +.00000025 +00000-0 +21612-4 0  9997
2 27386 098.1398 289.4240 0001191 090.3229 018.4542 14.37995103975672
0 ENVISAT
1 27386U 02009A   20288.77873289  .00000024  00000-0  21506-4 0  9992
2 27386  98.1398 289.5678 0001191  90.4385  83.0557 14.37995106975769
0 ENVISAT
1 27386U 02009A   20288.89605262 +.00000024 +00000-0 +21240-4 0  9994
2 27386 098.1398 289.6789 0001191 090.5330 329.9463 14.37995124975717
0 ENVISAT
1 27386U 02009A   20289.03589361  .00000024  00000-0  21318-4 0  9998
2 27386  98.1398 289.8115 0001190  90.4335 333.5507 14.37995155975809
0 ENVISAT
1 27386U 02009A   20289.53191118 +.00000024 +00000-0 +21373-4 0  9993
2 27386 098.1398 290.2815 0001198 090.5109 019.7533 14.37995229975804
0 ENVISAT
1 27386U 02009A   20289.60110062  .00000024  00000-0  21305-4 0  9995
2 27386  98.1398 290.3471 0001198  90.4813  17.7531 14.37995232975882
0 ENVISAT
1 27386U 02009A   20289.87033368 +.00000023 +00000-0 +20897-4 0  9991
2 27386 098.1398 290.6023 0001195 090.6663 330.5176 14.37995253975851
0 ENVISAT
1 27386U 02009A   20290.00854375  .00000022  00000-0  20588-4 0  9993
2 27386  98.1398 290.7332 0001195  90.6832 325.5676 14.37995280975942
0 ENVISAT
1 27386U 02009A   20290.51718725  .00000017  00000-0  19209-4 0  9999
2 27386  98.1398 291.2153 0001201  90.8693  76.9855 14.37995341976017
0 ENVISAT
1 27386U 02009A   20290.79656616  .00000014  00000-0  18102-4 0  9997
2 27386  98.1398 291.4801 0001200  91.0172  82.2795 14.37995338976056
0 ENVISAT
1 27386U 02009A   20290.91360135 +.00000013 +00000-0 +17902-4 0  9995
2 27386 098.1398 291.5910 0001199 091.0848 327.7249 14.37995359976004
0 ENVISAT
1 27386U 02009A   20291.05443882  .00000015  00000-0  18385-4 0  9990
2 27386  98.1398 291.7244 0001195  91.1515 336.3189 14.37995402976091
0 ENVISAT
1 27386U 02009A   20291.54964839  .00000014  00000-0  18018-4 0  9996
2 27386  98.1398 292.1938 0001200  91.2356  18.3349 14.37995462976166
0 ENVISAT
1 27386U 02009A   20291.61906802  .00000013  00000-0  17787-4 0  9991
2 27386  98.1398 292.2595 0001200  91.3148  17.4168 14.37995459976172
0 ENVISAT
1 27386U 02009A   20291.88796492 +.00000012 +00000-0 +17563-4 0  9993
2 27386 098.1398 292.5144 0001199 091.4797 328.4624 14.37995485976141
0 ENVISAT
1 27386U 02009A   20292.02777676  .00000012  00000-0  17571-4 0  9992
2 27386  98.1398 292.6468 0001200  91.5679 331.7285 14.37995515976238
0 ENVISAT
1 27386U 02009A   20292.45625115  .00000011  00000-0  17019-4 0  9995
2 27386  98.1398 293.0529 0001203  91.4228  28.7013 14.37995565976296
0 ENVISAT
1 27386U 02009A   20292.52433546 +.00000011 +00000-0 +17128-4 0  9999
2 27386 098.1398 293.1175 0001204 091.3865 020.9902 14.37995579976231
0 ENVISAT
1 27386U 02009A   20292.86313321  .00000010  00000-0  16908-4 0  9998
2 27386  98.1398 293.4386 0001199  91.3568 333.8815 14.37995607976355
0 ENVISAT
1 27386U 02009A   20292.93125344 +.00000010 +00000-0 +16661-4 0  9998
2 27386 098.1398 293.5031 0001201 091.4640 326.2126 14.37995613976290
0 ENVISAT
1 27386U 02009A   20292.99984778  .00000008  00000-0  16174-4 0  9994
2 27386  98.1398 293.5681 0001202  91.4250 321.1429 14.37995615976370
0 ENVISAT
1 27386U 02009A   20293.27017260 +.00000008 +00000-0 +16011-4 0  9999
2 27386 098.1398 293.8243 0001204 091.3888 279.7775 14.37995638976349
0 ENVISAT
1 27386U 02009A   20293.50824762  .00000008  00000-0  16178-4 0  9992
2 27386  98.1398 294.0499 0001208  91.5188  71.3930 14.37995690976442
0 ENVISAT
1 27386U 02009A   20293.78848012 +.00000008 +00000-0 +15985-4 0  9991
2 27386 098.1398 294.3155 0001208 091.6037 081.1667 14.37995697976485
0 ENVISAT
1 27386U 02009A   20294.47329817  .00000011  00000-0  17006-4 0  9995
2 27386  98.1399 294.9645 0001211  91.6494  24.2122 14.37995805976583
0 ENVISAT
1 27386U 02009A   20295.00994079  .00000009  00000-0  16345-4 0  9995
2 27386  98.1399 295.4731 0001212  91.6856 280.6416 14.37995842976662
0 ENVISAT
1 27386U 02009A   20295.28797845 +.00000009 +00000-0 +16336-4 0  9997
2 27386 098.1399 295.7366 0001215 091.6505 279.1796 14.37995857976630
0 ENVISAT
1 27386U 02009A   20295.51621208  .00000009  00000-0  16257-4 0  9994
2 27386  98.1399 295.9529 0001215  91.7275  19.9311 14.37995890976739
0 ENVISAT
1 27386U 02009A   20295.99193427  .00000011  00000-0  17099-4 0  9991
2 27386  98.1399 296.4037 0001212  91.7094 321.2268 14.37995944976803
0 ENVISAT
1 27386U 02009A   20296.50007463 +.00000018 +00000-0 +19384-4 0  9999
2 27386 098.1400 296.8853 0001216 091.6835 070.2546 14.37996029976807
0 ENVISAT
1 27386U 02009A   20296.89776464 +.00000020 +00000-0 +20104-4 0  9990
2 27386 098.1399 297.2622 0001216 091.7049 327.7902 14.37996060976868
0 ENVISAT
1 27386U 02009A   20297.03834694  .00000022  00000-0  20728-4 0  9991
2 27386  98.1400 297.3954 0001215  91.6699 335.1659 14.37996096976950
0 ENVISAT
1 27386U 02009A   20297.46555142  .00000027  00000-0  22276-4 0  9991
2 27386  98.1400 297.8002 0001221  91.7497  25.3444 14.37996158977010
0 ENVISAT
1 27386U 02009A   20297.94062825 +.00000031 +00000-0 +23650-4 0  9997
2 27386 098.1400 298.2505 0001220 091.4256 323.6075 14.37996220977016
0 ENVISAT
1 27386U 02009A   20298.01072065  .00000031  00000-0  23739-4 0  9991
2 27386  98.1400 298.3169 0001220  91.4433 326.2319 14.37996234977093
0 ENVISAT
1 27386U 02009A   20298.28004831 +.00000035 +00000-0 +25034-4 0  9990
2 27386 098.1400 298.5721 0001225 091.4477 279.6674 14.37996276977060
0 ENVISAT
1 27386U 02009A   20298.51975067  .00000033  00000-0  24358-4 0  9990
2 27386  98.1400 298.7993 0001221  91.2880  79.9922 14.37996295977164
0 ENVISAT
1 27386U 02009A   20298.79846668  .00000033  00000-0  24304-4 0  9995
2 27386  98.1401 299.0635 0001219  91.7277  81.5656 14.37996303977202
0 ENVISAT
1 27386U 02009A   20298.91544014 +.00000032 +00000-0 +24063-4 0  9990
2 27386 098.1401 299.1743 0001218 091.7907 326.6966 14.37996319977150
0 ENVISAT
1 27386U 02009A   20299.05626031  .00000031  00000-0  23801-4 0  9994
2 27386  98.1401 299.3078 0001219  91.7587 335.3001 14.37996338977246
0 ENVISAT
1 27386U 02009A   20299.49207883  .00000034  00000-0  24694-4 0  9996
2 27386  98.1401 299.7208 0001222  91.8064  70.0781 14.37996397977300
0 ENVISAT
1 27386U 02009A   20299.88994480  .00000038  00000-0  26062-4 0  9990
2 27386  98.1401 300.0978 0001220  91.9086 328.4440 14.37996458977369
0 ENVISAT
1 27386U 02009A   20299.95944432 +.00000036 +00000-0 +25471-4 0  9991
2 27386 098.1401 300.1637 0001222 091.9399 327.9874 14.37996460977303
0 ENVISAT
1 27386U 02009A   20300.02968525  .00000037  00000-0  25679-4 0  9992
2 27386  98.1401 300.2302 0001222  91.9140 331.4239 14.37996478977389
0 ENVISAT
1 27386U 02009A   20300.46857385  .00000037  00000-0  25642-4 0  9991
2 27386  98.1401 300.6462 0001225  91.8942  82.1535 14.37996535977442
0 ENVISAT
1 27386U 02009A   20300.99543736  .00000036  00000-0  25299-4 0  9998
2 27386  98.1401 301.1455 0001223  91.8883 288.0317 14.37996598977525
0 ENVISAT
1 27386U 02009A   20301.51014510  .00000036  00000-0  25404-4 0  9998
2 27386  98.1401 301.6333 0001225  91.9497  70.9516 14.37996687977594
0 ENVISAT
1 27386U 02009A   20301.63913521 +.00000036 +00000-0 +25382-4 0  9996
2 27386 098.1400 301.7555 0001224 091.8284 018.4386 14.37996698977541
0 ENVISAT
1 27386U 02009A   20301.90750950 +.00000032 +00000-0 +24137-4 0  9994
2 27386 098.1400 302.0099 0001207 092.0282 326.7466 14.37996716977589
0 ENVISAT
1 27386U 02009A   20302.04801473  .00000033  00000-0  24371-4 0  9998
2 27386  98.1400 302.1430 0001205  91.9527 333.7645 14.37996755977677
0 ENVISAT
1 27386U 02009A   20302.48412265  .00000032  00000-0  23996-4 0  9994
2 27386  98.1400 302.5564 0001213  92.2024  69.8385 14.37996813977734
0 ENVISAT
1 27386U 02009A   20302.54360965 +.00000035 +00000-0 +25023-4 0  9996
2 27386 098.1400 302.6127 0001214 092.1620 017.6512 14.37996834977671
0 ENVISAT
1 27386U 02009A   20302.76463024  .00000034  00000-0  24657-4 0  9991
2 27386  98.1400 302.8222 0001214  92.2751  81.0487 14.37996839977777
0 ENVISAT
1 27386U 02009A   20303.02138905  .00000029  00000-0  23048-4 0  9995
2 27386  98.1399 303.0655 0001210  92.2816 329.4544 14.37996880977819
0 ENVISAT
1 27386U 02009A   20303.58691962 +.00000028 +00000-0 +22733-4 0  9992
2 27386 098.1399 303.6014 0001216 092.4765 015.1873 14.37996968977827
0 ENVISAT
1 27386U 02009A   20303.80835936  .00000029  00000-0  22886-4 0  9998
2 27386  98.1399 303.8113 0001214  92.5383  80.8049 14.37996992977926
0 ENVISAT
1 27386U 02009A   20303.92504910 +.00000029 +00000-0 +22885-4 0  9995
2 27386 098.1399 303.9219 0001218 093.4467 323.6230 14.37997024977872
0 ENVISAT
1 27386U 02009A   20303.99385073 +.00000030 +00000-0 +23326-4 0  9992
2 27386 098.1398 303.9870 0001218 093.3322 319.7017 14.37997048977957
0 ENVISAT
1 27386U 02009A   20304.63096868  .00000026  00000-0  22052-4 0  9995
2 27386  98.1398 304.5908 0001221  93.1624  16.1765 14.37997123978046
0 ENVISAT
1 27386U 02009A   20304.96176351 +.00000026 +00000-0 +21956-4 0  9999
2 27386 098.1397 304.9043 0001220 093.3310 287.4660 14.37997175978024
0 ENVISAT
1 27386U 02009A   20305.03995816  .00000028  00000-0  22628-4 0  9992
2 27386  98.1398 304.9784 0001217  93.2401 332.1186 14.37997209978101
0 ENVISAT
1 27386U 02009A   20305.53539657  .00000027  00000-0  22388-4 0  9996
2 27386  98.1398 305.4478 0001224  93.2601  15.3858 14.37997282978171
0 ENVISAT
1 27386U 02009A   20305.60513633 +.00000027 +00000-0 +22350-4 0  9999
2 27386 098.1398 305.5139 0001224 093.2348 016.2290 14.37997287978113
0 ENVISAT
1 27386U 02009A   20305.87422059  .00000031  00000-0  23581-4 0  9991
2 27386  98.1398 305.7689 0001225  93.5815 328.0641 14.37997343978227
0 ENVISAT
1 27386U 02009A   20305.94279431 +.00000032 +00000-0 +23864-4 0  9998
2 27386 098.1398 305.8339 0001224 093.6521 322.7786 14.37997370978168
0 ENVISAT
1 27386U 02009A   20306.01272935  .00000032  00000-0  24140-4 0  9997
2 27386  98.1398 305.9002 0001224  93.5920 324.6670 14.37997392978244
